SL-16 R/B               
1 25400U 98043G   26056.45300054  .00000069  00000+0  47853-4 0  9990
2 25400  98.8233   9.7315 0010742  53.6205 306.5964 14.26046574437248
SL-16 R/B               
1 25407U 98045B   26056.49491880 -.00000146  00000+0 -49536-4 0  9999
2 25407  71.0107 207.2174 0006090  27.8006 332.3441 14.16191135425370
ISS (ZARYA)             
1 25544U 98067A   26056.63810093  .00009551  00000+0  18568-3 0  9999
2 25544  51.6319 131.9312 0008346 132.6774 227.4919 15.48288371554463
CZ-4B R/B               
1 25732U 99025C   26056.10097651  .00000037  00000+0  38427-4 0  9999
2 25732  98.6655 100.6792 0037441  22.8347   3.3980 14.18262500386380
OKEAN-O                 
1 25860U 99039A   26056.14710125  .00000586  00000+0  83711-4 0  9993
2 25860  97.9471 116.1643 0001603  75.9910 284.1480 14.80312191432537
SL-16 R/B               
1 25861U 99039B   26056.61151167  .00000538  00000+0  75124-4 0  9997
2 25861  97.9994 115.7246 0013557 299.2624  60.7233 14.81712092435077
DELTA 2 R/B             
1 25876U 99041E   26056.83168630  .00001509  00000+0  28049-3 0  9995
2 25876  51.7665 348.6382 0502248 313.4170  42.5971 14.11790487361352
HELIOS 1B               
1 25977U 99064A   26056.27071056  .00001649  00000+0  18766-3 0  9995
2 25977  98.1709 318.1484 0002456  91.6763 268.4733 14.87639299683417
TERRA                   
1 25994U 99068A   26056.79919984  .00000409  00000+0  92535-4 0  9996
2 25994  97.9620 110.6867 0001866 182.6493 242.0071 14.60999979393348
SL-16 R/B               
1 26070U 00006B   26056.50717426  .00000265  00000+0  15904-3 0  9996
2 26070  71.0018 123.4546 0017547 206.9237 153.0978 14.15820542346831
TITAN 4B R/B            
1 26474U 00047B   26056.76958338  .00003123  00000+0  19993-3 0  9994
2 26474  67.9885  74.0274 0037792  49.7235 310.7208 15.09434740391113
ENVISAT                 
1 27386U 02009A   26056.85297953  .00000122  00000+0  53269-4 0  9997
2 27386  98.3706  10.7336 0001372  85.9412 292.4988 14.39031820257471
