CCSDS_OMM_VERS = 2.0
CREATION_DATE  = 
ORIGINATOR     = 

OBJECT_NAME    = SL-16 R/B
OBJECT_ID      = 1998-043G
CENTER_NAME    = EARTH
REF_FRAME      = TEME
TIME_SYSTEM    = UTC
MEAN_ELEMENT_THEORY = SGP/SGP4

EPOCH          = 2026-02-25T10:52:19.246656
MEAN_MOTION    = 14.26046574
ECCENTRICITY   = .00107423
INCLINATION    = 98.8233
RA_OF_ASC_NODE = 9.7315
ARG_OF_PERICENTER = 53.6205
MEAN_ANOMALY   = 306.5964

EPHEMERIS_TYPE = 0
CLASSIFICATION_TYPE = U
NORAD_CAT_ID   = 25400
ELEMENT_SET_NO = 999
REV_AT_EPOCH   = 43724
BSTAR          = .4785308E-4
MEAN_MOTION_DOT = .69E-6
MEAN_MOTION_DDOT = 0

CCSDS_OMM_VERS = 2.0
CREATION_DATE  = 
ORIGINATOR     = 

OBJECT_NAME    = SL-16 R/B
OBJECT_ID      = 1998-045B
CENTER_NAME    = EARTH
REF_FRAME      = TEME
TIME_SYSTEM    = UTC
MEAN_ELEMENT_THEORY = SGP/SGP4

EPOCH          = 2026-02-25T11:52:40.984320
MEAN_MOTION    = 14.16191135
ECCENTRICITY   = .00060903
INCLINATION    = 71.0107
RA_OF_ASC_NODE = 207.2174
ARG_OF_PERICENTER = 27.8006
MEAN_ANOMALY   = 332.3441

EPHEMERIS_TYPE = 0
CLASSIFICATION_TYPE = U
NORAD_CAT_ID   = 25407
ELEMENT_SET_NO = 999
REV_AT_EPOCH   = 42537
BSTAR          = -.49536352E-4
MEAN_MOTION_DOT = -.146E-5
MEAN_MOTION_DDOT = 0

CCSDS_OMM_VERS = 2.0
CREATION_DATE  = 
ORIGINATOR     = 

OBJECT_NAME    = ISS (ZARYA)
OBJECT_ID      = 1998-067A
CENTER_NAME    = EARTH
REF_FRAME      = TEME
TIME_SYSTEM    = UTC
MEAN_ELEMENT_THEORY = SGP/SGP4

EPOCH          = 2026-02-25T15:18:51.920352
MEAN_MOTION    = 15.48288371
ECCENTRICITY   = .0008346
INCLINATION    = 51.6319
RA_OF_ASC_NODE = 131.9312
ARG_OF_PERICENTER = 132.6774
MEAN_ANOMALY   = 227.4919

EPHEMERIS_TYPE = 0
CLASSIFICATION_TYPE = U
NORAD_CAT_ID   = 25544
ELEMENT_SET_NO = 999
REV_AT_EPOCH   = 55446
BSTAR          = .18568E-3
MEAN_MOTION_DOT = .9551E-4
MEAN_MOTION_DDOT = 0

CCSDS_OMM_VERS = 2.0
CREATION_DATE  = 
ORIGINATOR     = 

OBJECT_NAME    = CZ-4B R/B
OBJECT_ID      = 1999-025C
CENTER_NAME    = EARTH
REF_FRAME      = TEME
TIME_SYSTEM    = UTC
MEAN_ELEMENT_THEORY = SGP/SGP4

EPOCH          = 2026-02-25T02:25:24.370464
MEAN_MOTION    = 14.18262500
ECCENTRICITY   = .00374414
INCLINATION    = 98.6655
RA_OF_ASC_NODE = 100.6792
ARG_OF_PERICENTER = 22.8347
MEAN_ANOMALY   = 3.3980

EPHEMERIS_TYPE = 0
CLASSIFICATION_TYPE = U
NORAD_CAT_ID   = 25732
ELEMENT_SET_NO = 999
REV_AT_EPOCH   = 38638
BSTAR          = .3842676E-4
MEAN_MOTION_DOT = .37E-6
MEAN_MOTION_DDOT = 0

CCSDS_OMM_VERS = 2.0
CREATION_DATE  = 
ORIGINATOR     = 

OBJECT_NAME    = OKEAN-O
OBJECT_ID      = 1999-039A
CENTER_NAME    = EARTH
REF_FRAME      = TEME
TIME_SYSTEM    = UTC
MEAN_ELEMENT_THEORY = SGP/SGP4

EPOCH          = 2026-02-25T03:31:49.548000
MEAN_MOTION    = 14.80312191
ECCENTRICITY   = .00016034
INCLINATION    = 97.9471
RA_OF_ASC_NODE = 116.1643
ARG_OF_PERICENTER = 75.9910
MEAN_ANOMALY   = 284.1480

EPHEMERIS_TYPE = 0
CLASSIFICATION_TYPE = U
NORAD_CAT_ID   = 25860
ELEMENT_SET_NO = 999
REV_AT_EPOCH   = 43253
BSTAR          = .83711384E-4
MEAN_MOTION_DOT = .586E-5
MEAN_MOTION_DDOT = 0

CCSDS_OMM_VERS = 2.0
CREATION_DATE  = 
ORIGINATOR     = 

OBJECT_NAME    = SL-16 R/B
OBJECT_ID      = 1999-039B
CENTER_NAME    = EARTH
REF_FRAME      = TEME
TIME_SYSTEM    = UTC
MEAN_ELEMENT_THEORY = SGP/SGP4

EPOCH          = 2026-02-25T14:40:34.608288
MEAN_MOTION    = 14.81712092
ECCENTRICITY   = .0013557
INCLINATION    = 97.9994
RA_OF_ASC_NODE = 115.7246
ARG_OF_PERICENTER = 299.2624
MEAN_ANOMALY   = 60.7233

EPHEMERIS_TYPE = 0
CLASSIFICATION_TYPE = U
NORAD_CAT_ID   = 25861
ELEMENT_SET_NO = 999
REV_AT_EPOCH   = 43507
BSTAR          = .75124E-4
MEAN_MOTION_DOT = .538E-5
MEAN_MOTION_DDOT = 0

CCSDS_OMM_VERS = 2.0
CREATION_DATE  = 
ORIGINATOR     = 

OBJECT_NAME    = DELTA 2 R/B
OBJECT_ID      = 1999-041E
CENTER_NAME    = EARTH
REF_FRAME      = TEME
TIME_SYSTEM    = UTC
MEAN_ELEMENT_THEORY = SGP/SGP4

EPOCH          = 2026-02-25T19:57:37.696320
MEAN_MOTION    = 14.11790487
ECCENTRICITY   = .0502248
INCLINATION    = 51.7665
RA_OF_ASC_NODE = 348.6382
ARG_OF_PERICENTER = 313.4170
MEAN_ANOMALY   = 42.5971

EPHEMERIS_TYPE = 0
CLASSIFICATION_TYPE = U
NORAD_CAT_ID   = 25876
ELEMENT_SET_NO = 999
REV_AT_EPOCH   = 36135
BSTAR          = .28049E-3
MEAN_MOTION_DOT = .1509E-4
MEAN_MOTION_DDOT = 0

CCSDS_OMM_VERS = 2.0
CREATION_DATE  = 
ORIGINATOR     = 

OBJECT_NAME    = HELIOS 1B
OBJECT_ID      = 1999-064A
CENTER_NAME    = EARTH
REF_FRAME      = TEME
TIME_SYSTEM    = UTC
MEAN_ELEMENT_THEORY = SGP/SGP4

EPOCH          = 2026-02-25T06:29:49.392384
MEAN_MOTION    = 14.87639299
ECCENTRICITY   = .0002456
INCLINATION    = 98.1709
RA_OF_ASC_NODE = 318.1484
ARG_OF_PERICENTER = 91.6763
MEAN_ANOMALY   = 268.4733

EPHEMERIS_TYPE = 0
CLASSIFICATION_TYPE = U
NORAD_CAT_ID   = 25977
ELEMENT_SET_NO = 999
REV_AT_EPOCH   = 68341
BSTAR          = .18766E-3
MEAN_MOTION_DOT = .1649E-4
MEAN_MOTION_DDOT = 0

CCSDS_OMM_VERS = 2.0
CREATION_DATE  = 
ORIGINATOR     = 

OBJECT_NAME    = TERRA
OBJECT_ID      = 1999-068A
CENTER_NAME    = EARTH
REF_FRAME      = TEME
TIME_SYSTEM    = UTC
MEAN_ELEMENT_THEORY = SGP/SGP4

EPOCH          = 2026-02-25T19:10:50.866176
MEAN_MOTION    = 14.60999979
ECCENTRICITY   = .0001866
INCLINATION    = 97.9620
RA_OF_ASC_NODE = 110.6867
ARG_OF_PERICENTER = 182.6493
MEAN_ANOMALY   = 242.0071

EPHEMERIS_TYPE = 0
CLASSIFICATION_TYPE = U
NORAD_CAT_ID   = 25994
ELEMENT_SET_NO = 999
REV_AT_EPOCH   = 39334
BSTAR          = .92535E-4
MEAN_MOTION_DOT = .409E-5
MEAN_MOTION_DDOT = 0

CCSDS_OMM_VERS = 2.0
CREATION_DATE  = 
ORIGINATOR     = 

OBJECT_NAME    = SL-16 R/B
OBJECT_ID      = 2000-006B
CENTER_NAME    = EARTH
REF_FRAME      = TEME
TIME_SYSTEM    = UTC
MEAN_ELEMENT_THEORY = SGP/SGP4

EPOCH          = 2026-02-25T12:10:19.856064
MEAN_MOTION    = 14.15820542
ECCENTRICITY   = .00175471
INCLINATION    = 71.0018
RA_OF_ASC_NODE = 123.4546
ARG_OF_PERICENTER = 206.9237
MEAN_ANOMALY   = 153.0978

EPHEMERIS_TYPE = 0
CLASSIFICATION_TYPE = U
NORAD_CAT_ID   = 26070
ELEMENT_SET_NO = 999
REV_AT_EPOCH   = 34683
BSTAR          = .15903785E-3
MEAN_MOTION_DOT = .265E-5
MEAN_MOTION_DDOT = 0

CCSDS_OMM_VERS = 2.0
CREATION_DATE  = 
ORIGINATOR     = 

OBJECT_NAME    = TITAN 4B R/B
OBJECT_ID      = 2000-047B
CENTER_NAME    = EARTH
REF_FRAME      = TEME
TIME_SYSTEM    = UTC
MEAN_ELEMENT_THEORY = SGP/SGP4

EPOCH          = 2026-02-25T18:28:12.004032
MEAN_MOTION    = 15.09434740
ECCENTRICITY   = .0037792
INCLINATION    = 67.9885
RA_OF_ASC_NODE = 74.0274
ARG_OF_PERICENTER = 49.7235
MEAN_ANOMALY   = 310.7208

EPHEMERIS_TYPE = 0
CLASSIFICATION_TYPE = U
NORAD_CAT_ID   = 26474
ELEMENT_SET_NO = 999
REV_AT_EPOCH   = 39111
BSTAR          = .19993E-3
MEAN_MOTION_DOT = .3123E-4
MEAN_MOTION_DDOT = 0

CCSDS_OMM_VERS = 2.0
CREATION_DATE  = 
ORIGINATOR     = 

OBJECT_NAME    = ENVISAT
OBJECT_ID      = 2002-009A
CENTER_NAME    = EARTH
REF_FRAME      = TEME
TIME_SYSTEM    = UTC
MEAN_ELEMENT_THEORY = SGP/SGP4

EPOCH          = 2026-02-25T20:28:17.431392
MEAN_MOTION    = 14.39031820
ECCENTRICITY   = .0001372
INCLINATION    = 98.3706
RA_OF_ASC_NODE = 10.7336
ARG_OF_PERICENTER = 85.9412
MEAN_ANOMALY   = 292.4988

EPHEMERIS_TYPE = 0
CLASSIFICATION_TYPE = U
NORAD_CAT_ID   = 27386
ELEMENT_SET_NO = 999
REV_AT_EPOCH   = 25747
BSTAR          = .53269E-4
MEAN_MOTION_DOT = .122E-5
MEAN_MOTION_DDOT = 0

